{"type":"FeatureCollection","features":[{"type":"Feature","geometry":{"type":"Point","coordinates":[114.195473,22.34199]},"properties":{"date":"2026-07-03","year":2026,"month":"2026-07","location":"沙田坳道","district":"黃大仙區","district_en":"Wong Tai Sin","count":1,"action_number":"1221","source":"AFCD","count_band":null,"location_precision":null,"notes":""}},{"type":"Feature","geometry":{"type":"Point","coordinates":[114.165415,22.269361]},"properties":{"date":"2026-07-03","year":2026,"month":"2026-07","location":"馬己仙峽道","district":"中西區","district_en":"Central and Western","count":3,"action_number":"1222","source":"AFCD","count_band":null,"location_precision":null,"notes":""}},{"type":"Feature","geometry":{"type":"Point","coordinates":[114.238197,22.33604]},"properties":{"date":"2026-07-08","year":2026,"month":"2026-07","location":"井欄樹","district":"西貢區","district_en":"Sai Kung","count":1,"action_number":"1224","source":"AFCD","count_band":null,"location_precision":null,"notes":""}},{"type":"Feature","geometry":{"type":"Point","coordinates":[114.243021,22.302225]},"properties":{"date":"2026-07-08","year":2026,"month":"2026-07","location":"澳景路","district":"觀塘區","district_en":"Kwun Tong","count":1,"action_number":"1223","source":"AFCD","count_band":null,"location_precision":null,"notes":""}},{"type":"Feature","geometry":{"type":"Point","coordinates":[114.24405,22.316965]},"properties":{"date":"2026-07-08","year":2026,"month":"2026-07","location":"馬游塘","district":"西貢區","district_en":"Sai Kung","count":6,"action_number":"1225","source":"AFCD","count_band":null,"location_precision":null,"notes":""}},{"type":"Feature","geometry":{"type":"Point","coordinates":[114.123845,22.272782]},"properties":{"date":"2026-07-09","year":2026,"month":"2026-07","location":"摩星嶺道","district":null,"district_en":null,"count":6,"action_number":"1226","source":"AFCD","count_band":null,"location_precision":null,"notes":""}},{"type":"Feature","geometry":{"type":"Point","coordinates":[114.16924,22.267248]},"properties":{"date":"2026-07-09","year":2026,"month":"2026-07","location":"甘道","district":"灣仔區","district_en":"Wan Chai","count":1,"action_number":"1227","source":"AFCD","count_band":null,"location_precision":null,"notes":""}},{"type":"Feature","geometry":{"type":"Point","coordinates":[113.996923,22.374597]},"properties":{"date":"2026-07-14","year":2026,"month":"2026-07","location":"掃管笏路","district":"屯門區","district_en":"Tuen Mun","count":4,"action_number":"1229","source":"AFCD","count_band":null,"location_precision":null,"notes":""}},{"type":"Feature","geometry":{"type":"Point","coordinates":[114.201195,22.401538]},"properties":{"date":"2026-07-14","year":2026,"month":"2026-07","location":"落路下","district":"沙田區","district_en":"Sha Tin","count":1,"action_number":"1228","source":"AFCD","count_band":null,"location_precision":null,"notes":""}},{"type":"Feature","geometry":{"type":"Point","coordinates":[114.201195,22.401538]},"properties":{"date":"2026-07-15","year":2026,"month":"2026-07","location":"落路下","district":"沙田區","district_en":"Sha Tin","count":2,"action_number":"1231","source":"AFCD","count_band":null,"location_precision":null,"notes":""}},{"type":"Feature","geometry":{"type":"Point","coordinates":[114.203429,22.406225]},"properties":{"date":"2026-07-15","year":2026,"month":"2026-07","location":"馬影徑","district":"沙田區","district_en":"Sha Tin","count":1,"action_number":"1230","source":"AFCD","count_band":null,"location_precision":null,"notes":""}},{"type":"Feature","geometry":{"type":"Point","coordinates":[114.037972,22.462397]},"properties":{"date":"2026-07-16","year":2026,"month":"2026-07","location":"南生圍","district":"元朗區","district_en":"Yuen Long","count":5,"action_number":"1232","source":"AFCD","count_band":null,"location_precision":null,"notes":""}},{"type":"Feature","geometry":{"type":"Point","coordinates":[114.034971,22.451817]},"properties":{"date":"2026-07-17","year":2026,"month":"2026-07","location":"山貝路","district":"元朗區","district_en":"Yuen Long","count":2,"action_number":"1234","source":"AFCD","count_band":null,"location_precision":null,"notes":""}},{"type":"Feature","geometry":{"type":"Point","coordinates":[113.992199,22.418719]},"properties":{"date":"2026-07-17","year":2026,"month":"2026-07","location":"達福路","district":"屯門區","district_en":"Tuen Mun","count":6,"action_number":"1233","source":"AFCD","count_band":null,"location_precision":null,"notes":""}},{"type":"Feature","geometry":{"type":"Point","coordinates":[114.149119,22.24891]},"properties":{"date":"2026-07-18","year":2026,"month":"2026-07","location":"石排灣道","district":"南區","district_en":"Southern","count":4,"action_number":"1235","source":"AFCD","count_band":null,"location_precision":null,"notes":""}},{"type":"Feature","geometry":{"type":"Point","coordinates":[114.294421,22.356228]},"properties":{"date":"2026-07-21","year":2026,"month":"2026-07","location":"廈門灣","district":"西貢區","district_en":"Sai Kung","count":1,"action_number":"1236","source":"AFCD","count_band":null,"location_precision":null,"notes":""}},{"type":"Feature","geometry":{"type":"Point","coordinates":[114.272617,22.303122]},"properties":{"date":"2026-07-22","year":2026,"month":"2026-07","location":"百勝角路","district":"西貢區","district_en":"Sai Kung","count":3,"action_number":"1237","source":"AFCD","count_band":null,"location_precision":null,"notes":""}},{"type":"Feature","geometry":{"type":"Point","coordinates":[114.272617,22.303122]},"properties":{"date":"2026-07-23","year":2026,"month":"2026-07","location":"百勝角路","district":"西貢區","district_en":"Sai Kung","count":2,"action_number":"1238","source":"AFCD","count_band":null,"location_precision":null,"notes":""}},{"type":"Feature","geometry":{"type":"Point","coordinates":[114.165415,22.269361]},"properties":{"date":"2026-07-23","year":2026,"month":"2026-07","location":"馬己仙峽道","district":"中西區","district_en":"Central and Western","count":3,"action_number":"1239","source":"AFCD","count_band":null,"location_precision":null,"notes":""}},{"type":"Feature","geometry":{"type":"Point","coordinates":[114.319029,22.397332]},"properties":{"date":"2026-07-24","year":2026,"month":"2026-07","location":"北潭涌","district":"西貢區","district_en":"Sai Kung","count":3,"action_number":"1240","source":"AFCD","count_band":null,"location_precision":null,"notes":""}},{"type":"Feature","geometry":{"type":"Point","coordinates":[114.138274,22.494626]},"properties":{"date":"2026-07-29","year":2026,"month":"2026-07","location":"粉嶺","district":"北區","district_en":"North","count":8,"action_number":"1241","source":"AFCD","count_band":null,"location_precision":null,"notes":""}},{"type":"Feature","geometry":{"type":"Point","coordinates":[114.148679,22.482701]},"properties":{"date":"2026-07-30","year":2026,"month":"2026-07","location":"和合石","district":"北區","district_en":"North","count":2,"action_number":"1243","source":"AFCD","count_band":null,"location_precision":null,"notes":""}},{"type":"Feature","geometry":{"type":"Point","coordinates":[114.147409,22.495057]},"properties":{"date":"2026-07-30","year":2026,"month":"2026-07","location":"崇謙堂村","district":"北區","district_en":"North","count":1,"action_number":"1242","source":"AFCD","count_band":null,"location_precision":null,"notes":""}},{"type":"Feature","geometry":{"type":"Point","coordinates":[114.202914,22.468613]},"properties":{"date":"2026-07-30","year":2026,"month":"2026-07","location":"洞梓路","district":"大埔區","district_en":"Tai Po","count":1,"action_number":"1244","source":"AFCD","count_band":null,"location_precision":null,"notes":""}},{"type":"Feature","geometry":{"type":"Point","coordinates":[114.061608,22.479543]},"properties":{"date":"2026-07-30","year":2026,"month":"2026-07","location":"牛潭尾路","district":"元朗區","district_en":"Yuen Long","count":1,"action_number":"1245","source":"AFCD","count_band":null,"location_precision":null,"notes":""}},{"type":"Feature","geometry":{"type":"Point","coordinates":[114.147409,22.495057]},"properties":{"date":"2026-07-31","year":2026,"month":"2026-07","location":"崇謙堂村","district":"北區","district_en":"North","count":1,"action_number":"1246","source":"AFCD","count_band":null,"location_precision":null,"notes":""}},{"type":"Feature","geometry":{"type":"Point","coordinates":[113.979848,22.410584]},"properties":{"date":"2026-08-03","year":2026,"month":"2026-08","location":"屯富路","district":"屯門區","district_en":"Tuen Mun","count":1,"action_number":"1247","source":"AFCD","count_band":null,"location_precision":null,"notes":""}},{"type":"Feature","geometry":{"type":"Point","coordinates":[114.034971,22.451817]},"properties":{"date":"2026-08-04","year":2026,"month":"2026-08","location":"山貝路","district":"元朗區","district_en":"Yuen Long","count":1,"action_number":"1249","source":"AFCD","count_band":null,"location_precision":null,"notes":""}},{"type":"Feature","geometry":{"type":"Point","coordinates":[114.053523,22.462699]},"properties":{"date":"2026-08-04","year":2026,"month":"2026-08","location":"新潭路","district":"元朗區","district_en":"Yuen Long","count":2,"action_number":"1251","source":"AFCD","count_band":null,"location_precision":null,"notes":""}},{"type":"Feature","geometry":{"type":"Point","coordinates":[114.262439,22.430184]},"properties":{"date":"2026-08-04","year":2026,"month":"2026-08","location":"輋下","district":"大埔區","district_en":"Tai Po","count":1,"action_number":"1248","source":"AFCD","count_band":null,"location_precision":null,"notes":""}},{"type":"Feature","geometry":{"type":"Point","coordinates":[113.992199,22.418719]},"properties":{"date":"2026-08-04","year":2026,"month":"2026-08","location":"達福路","district":"屯門區","district_en":"Tuen Mun","count":3,"action_number":"1250","source":"AFCD","count_band":null,"location_precision":null,"notes":""}},{"type":"Feature","geometry":{"type":"Point","coordinates":[114.130237,22.260755]},"properties":{"date":"2026-08-05","year":2026,"month":"2026-08","location":"數碼港","district":"南區","district_en":"Southern","count":1,"action_number":"1252","source":"AFCD","count_band":null,"location_precision":null,"notes":""}},{"type":"Feature","geometry":{"type":"Point","coordinates":[114.199165,22.238242]},"properties":{"date":"2026-08-05","year":2026,"month":"2026-08","location":"淺水灣道","district":"南區","district_en":"Southern","count":4,"action_number":"1254","source":"AFCD","count_band":null,"location_precision":null,"notes":""}},{"type":"Feature","geometry":{"type":"Point","coordinates":[114.262439,22.430184]},"properties":{"date":"2026-08-05","year":2026,"month":"2026-08","location":"輋下","district":"大埔區","district_en":"Tai Po","count":1,"action_number":"1253","source":"AFCD","count_band":null,"location_precision":null,"notes":""}},{"type":"Feature","geometry":{"type":"Point","coordinates":[114.319029,22.397332]},"properties":{"date":"2026-08-06","year":2026,"month":"2026-08","location":"北潭涌","district":"西貢區","district_en":"Sai Kung","count":3,"action_number":"1256","source":"AFCD","count_band":null,"location_precision":null,"notes":""}},{"type":"Feature","geometry":{"type":"Point","coordinates":[114.117583,22.376975]},"properties":{"date":"2026-08-06","year":2026,"month":"2026-08","location":"芙蓉山路","district":"荃灣區","district_en":"Tsuen Wan","count":1,"action_number":"1257","source":"AFCD","count_band":null,"location_precision":null,"notes":""}},{"type":"Feature","geometry":{"type":"Point","coordinates":[114.262439,22.430184]},"properties":{"date":"2026-08-06","year":2026,"month":"2026-08","location":"輋下","district":"大埔區","district_en":"Tai Po","count":1,"action_number":"1255","source":"AFCD","count_band":null,"location_precision":null,"notes":""}},{"type":"Feature","geometry":{"type":"Point","coordinates":[114.117583,22.376975]},"properties":{"date":"2026-08-07","year":2026,"month":"2026-08","location":"芙蓉山路","district":"荃灣區","district_en":"Tsuen Wan","count":4,"action_number":"1258","source":"AFCD","count_band":null,"location_precision":null,"notes":""}},{"type":"Feature","geometry":{"type":"Point","coordinates":[114.250033,22.233167]},"properties":{"date":"2026-08-10","year":2026,"month":"2026-08","location":"石澳","district":"南區","district_en":"Southern","count":1,"action_number":"1259","source":"AFCD","count_band":null,"location_precision":null,"notes":""}},{"type":"Feature","geometry":{"type":"Point","coordinates":[114.294421,22.356228]},"properties":{"date":"2026-08-11","year":2026,"month":"2026-08","location":"廈門灣","district":"西貢區","district_en":"Sai Kung","count":1,"action_number":"1261","source":"AFCD","count_band":null,"location_precision":null,"notes":""}},{"type":"Feature","geometry":{"type":"Point","coordinates":[114.222611,22.406306]},"properties":{"date":"2026-08-11","year":2026,"month":"2026-08","location":"恆信街","district":"沙田區","district_en":"Sha Tin","count":1,"action_number":"1260","source":"AFCD","count_band":null,"location_precision":null,"notes":""}},{"type":"Feature","geometry":{"type":"Point","coordinates":[114.264132,22.380989]},"properties":{"date":"2026-08-11","year":2026,"month":"2026-08","location":"菠蘿輋","district":"西貢區","district_en":"Sai Kung","count":1,"action_number":"1262","source":"AFCD","count_band":null,"location_precision":null,"notes":""}},{"type":"Feature","geometry":{"type":"Point","coordinates":[114.238197,22.33604]},"properties":{"date":"2026-08-12","year":2026,"month":"2026-08","location":"井欄樹","district":"西貢區","district_en":"Sai Kung","count":3,"action_number":"1265","source":"AFCD","count_band":null,"location_precision":null,"notes":""}},{"type":"Feature","geometry":{"type":"Point","coordinates":[114.243021,22.302225]},"properties":{"date":"2026-08-12","year":2026,"month":"2026-08","location":"澳景路","district":"觀塘區","district_en":"Kwun Tong","count":3,"action_number":"1264","source":"AFCD","count_band":null,"location_precision":null,"notes":""}},{"type":"Feature","geometry":{"type":"Point","coordinates":[114.165415,22.269361]},"properties":{"date":"2026-08-12","year":2026,"month":"2026-08","location":"馬己仙峽道","district":"中西區","district_en":"Central and Western","count":4,"action_number":"1263","source":"AFCD","count_band":null,"location_precision":null,"notes":""}},{"type":"Feature","geometry":{"type":"Point","coordinates":[114.297682,22.303526]},"properties":{"date":"2026-08-12","year":2026,"month":"2026-08","location":"龍蝦灣路","district":"西貢區","district_en":"Sai Kung","count":4,"action_number":"1266","source":"AFCD","count_band":null,"location_precision":null,"notes":""}},{"type":"Feature","geometry":{"type":"Point","coordinates":[114.141648,22.280373]},"properties":{"date":"2026-08-13","year":2026,"month":"2026-08","location":"寶珊道","district":"中西區","district_en":"Central and Western","count":1,"action_number":"1268","source":"AFCD","count_band":null,"location_precision":null,"notes":""}},{"type":"Feature","geometry":{"type":"Point","coordinates":[114.140093,22.281176]},"properties":{"date":"2026-08-13","year":2026,"month":"2026-08","location":"旭龢道","district":"中西區","district_en":"Central and Western","count":1,"action_number":"1269","source":"AFCD","count_band":null,"location_precision":null,"notes":""}},{"type":"Feature","geometry":{"type":"Point","coordinates":[114.238802,22.309835]},"properties":{"date":"2026-08-13","year":2026,"month":"2026-08","location":"碧雲道","district":"觀塘區","district_en":"Kwun Tong","count":1,"action_number":"1267","source":"AFCD","count_band":null,"location_precision":null,"notes":""}},{"type":"Feature","geometry":{"type":"Point","coordinates":[114.156421,22.248907]},"properties":{"date":"2026-08-13","year":2026,"month":"2026-08","location":"香港仔","district":"南區","district_en":"Southern","count":2,"action_number":"1270","source":"AFCD","count_band":null,"location_precision":null,"notes":""}},{"type":"Feature","geometry":{"type":"Point","coordinates":[114.250033,22.233167]},"properties":{"date":"2026-08-14","year":2026,"month":"2026-08","location":"石澳","district":"南區","district_en":"Southern","count":1,"action_number":"1271","source":"AFCD","count_band":null,"location_precision":null,"notes":""}},{"type":"Feature","geometry":{"type":"Point","coordinates":[114.133271,22.283763]},"properties":{"date":"2026-08-15","year":2026,"month":"2026-08","location":"薄扶林道","district":"中西區","district_en":"Central and Western","count":2,"action_number":"1272","source":"AFCD","count_band":null,"location_precision":null,"notes":""}},{"type":"Feature","geometry":{"type":"Point","coordinates":[114.243099,22.266023]},"properties":{"date":"2026-08-17","year":2026,"month":"2026-08","location":"柴灣道","district":null,"district_en":null,"count":3,"action_number":"1273","source":"AFCD","count_band":null,"location_precision":null,"notes":""}},{"type":"Feature","geometry":{"type":"Point","coordinates":[114.177867,22.365578]},"properties":{"date":"2026-08-18","year":2026,"month":"2026-08","location":"下徑口","district":"沙田區","district_en":"Sha Tin","count":1,"action_number":"1276","source":"AFCD","count_band":null,"location_precision":null,"notes":""}},{"type":"Feature","geometry":{"type":"Point","coordinates":[114.243099,22.266023]},"properties":{"date":"2026-08-18","year":2026,"month":"2026-08","location":"柴灣道","district":null,"district_en":null,"count":3,"action_number":"1274","source":"AFCD","count_band":null,"location_precision":null,"notes":""}},{"type":"Feature","geometry":{"type":"Point","coordinates":[114.189343,22.392175]},"properties":{"date":"2026-08-18","year":2026,"month":"2026-08","location":"穗禾路","district":"沙田區","district_en":"Sha Tin","count":2,"action_number":"1277","source":"AFCD","count_band":null,"location_precision":null,"notes":""}},{"type":"Feature","geometry":{"type":"Point","coordinates":[114.173924,22.362705]},"properties":{"date":"2026-08-18","year":2026,"month":"2026-08","location":"顯田街","district":"沙田區","district_en":"Sha Tin","count":2,"action_number":"1275","source":"AFCD","count_band":null,"location_precision":null,"notes":""}},{"type":"Feature","geometry":{"type":"Point","coordinates":[114.177867,22.365578]},"properties":{"date":"2026-08-19","year":2026,"month":"2026-08","location":"下徑口","district":"沙田區","district_en":"Sha Tin","count":1,"action_number":"1279","source":"AFCD","count_band":null,"location_precision":null,"notes":""}},{"type":"Feature","geometry":{"type":"Point","coordinates":[114.130237,22.260755]},"properties":{"date":"2026-08-19","year":2026,"month":"2026-08","location":"數碼港","district":"南區","district_en":"Southern","count":1,"action_number":"1283","source":"AFCD","count_band":null,"location_precision":null,"notes":""}},{"type":"Feature","geometry":{"type":"Point","coordinates":[114.243099,22.266023]},"properties":{"date":"2026-08-19","year":2026,"month":"2026-08","location":"柴灣道","district":null,"district_en":null,"count":2,"action_number":"1278","source":"AFCD","count_band":null,"location_precision":null,"notes":""}},{"type":"Feature","geometry":{"type":"Point","coordinates":[114.201195,22.401538]},"properties":{"date":"2026-08-19","year":2026,"month":"2026-08","location":"落路下","district":"沙田區","district_en":"Sha Tin","count":1,"action_number":"1281","source":"AFCD","count_band":null,"location_precision":null,"notes":""}},{"type":"Feature","geometry":{"type":"Point","coordinates":[114.173924,22.362705]},"properties":{"date":"2026-08-19","year":2026,"month":"2026-08","location":"顯田街","district":"沙田區","district_en":"Sha Tin","count":1,"action_number":"1280","source":"AFCD","count_band":null,"location_precision":null,"notes":""}},{"type":"Feature","geometry":{"type":"Point","coordinates":[114.234872,22.423705]},"properties":{"date":"2026-08-19","year":2026,"month":"2026-08","location":"馬錦街","district":"沙田區","district_en":"Sha Tin","count":1,"action_number":"1282","source":"AFCD","count_band":null,"location_precision":null,"notes":""}},{"type":"Feature","geometry":{"type":"Point","coordinates":[114.130237,22.260755]},"properties":{"date":"2026-08-20","year":2026,"month":"2026-08","location":"數碼港","district":"南區","district_en":"Southern","count":1,"action_number":"1285","source":"AFCD","count_band":null,"location_precision":null,"notes":""}},{"type":"Feature","geometry":{"type":"Point","coordinates":[114.2538,22.259674]},"properties":{"date":"2026-08-20","year":2026,"month":"2026-08","location":"龍躍徑","district":null,"district_en":null,"count":1,"action_number":"1284","source":"AFCD","count_band":null,"location_precision":null,"notes":""}},{"type":"Feature","geometry":{"type":"Point","coordinates":[114.143991,22.491447]},"properties":{"date":"2026-08-21","year":2026,"month":"2026-08","location":"新運路","district":"北區","district_en":"North","count":5,"action_number":"1287","source":"AFCD","count_band":null,"location_precision":null,"notes":""}},{"type":"Feature","geometry":{"type":"Point","coordinates":[114.264132,22.380989]},"properties":{"date":"2026-08-21","year":2026,"month":"2026-08","location":"菠蘿輋","district":"西貢區","district_en":"Sai Kung","count":1,"action_number":"1286","source":"AFCD","count_band":null,"location_precision":null,"notes":""}},{"type":"Feature","geometry":{"type":"Point","coordinates":[114.148679,22.482701]},"properties":{"date":"2026-08-25","year":2026,"month":"2026-08","location":"和合石","district":"北區","district_en":"North","count":1,"action_number":"1288","source":"AFCD","count_band":null,"location_precision":null,"notes":""}},{"type":"Feature","geometry":{"type":"Point","coordinates":[114.147409,22.495057]},"properties":{"date":"2026-08-25","year":2026,"month":"2026-08","location":"崇謙堂村","district":"北區","district_en":"North","count":2,"action_number":"1289","source":"AFCD","count_band":null,"location_precision":null,"notes":""}},{"type":"Feature","geometry":{"type":"Point","coordinates":[114.259357,22.526825]},"properties":{"date":"2026-08-25","year":2026,"month":"2026-08","location":"荔枝窩","district":"北區","district_en":"North","count":1,"action_number":"1290","source":"AFCD","count_band":null,"location_precision":null,"notes":""}},{"type":"Feature","geometry":{"type":"Point","coordinates":[114.130237,22.260755]},"properties":{"date":"2026-08-26","year":2026,"month":"2026-08","location":"數碼港","district":"南區","district_en":"Southern","count":1,"action_number":"1291","source":"AFCD","count_band":null,"location_precision":null,"notes":""}},{"type":"Feature","geometry":{"type":"Point","coordinates":[114.19524,22.345273]},"properties":{"date":"2026-08-28","year":2026,"month":"2026-08","location":"竹園道","district":"黃大仙區","district_en":"Wong Tai Sin","count":1,"action_number":"1292","source":"AFCD","count_band":null,"location_precision":null,"notes":""}},{"type":"Feature","geometry":{"type":"Point","coordinates":[113.996923,22.374597]},"properties":{"date":"2026-09-02","year":2026,"month":"2026-09","location":"掃管笏路","district":"屯門區","district_en":"Tuen Mun","count":2,"action_number":"1293","source":"AFCD","count_band":null,"location_precision":null,"notes":""}},{"type":"Feature","geometry":{"type":"Point","coordinates":[113.996923,22.374597]},"properties":{"date":"2026-09-03","year":2026,"month":"2026-09","location":"掃管笏路","district":"屯門區","district_en":"Tuen Mun","count":1,"action_number":"1296","source":"AFCD","count_band":null,"location_precision":null,"notes":""}},{"type":"Feature","geometry":{"type":"Point","coordinates":[114.138274,22.494626]},"properties":{"date":"2026-09-03","year":2026,"month":"2026-09","location":"粉嶺","district":"北區","district_en":"North","count":5,"action_number":"1294","source":"AFCD","count_band":null,"location_precision":null,"notes":""}},{"type":"Feature","geometry":{"type":"Point","coordinates":[114.067141,22.496292]},"properties":{"date":"2026-09-03","year":2026,"month":"2026-09","location":"青山公路-新田段","district":"元朗區","district_en":"Yuen Long","count":3,"action_number":"1295","source":"AFCD","count_band":null,"location_precision":null,"notes":""}},{"type":"Feature","geometry":{"type":"Point","coordinates":[114.312631,22.361483]},"properties":{"date":"2026-09-07","year":2026,"month":"2026-09","location":"滘西洲","district":"西貢區","district_en":"Sai Kung","count":1,"action_number":"1297","source":"AFCD","count_band":null,"location_precision":null,"notes":""}},{"type":"Feature","geometry":{"type":"Point","coordinates":[114.238197,22.33604]},"properties":{"date":"2026-09-08","year":2026,"month":"2026-09","location":"井欄樹","district":"西貢區","district_en":"Sai Kung","count":1,"action_number":"1299","source":"AFCD","count_band":null,"location_precision":null,"notes":""}},{"type":"Feature","geometry":{"type":"Point","coordinates":[114.257006,22.352539]},"properties":{"date":"2026-09-08","year":2026,"month":"2026-09","location":"南圍","district":"西貢區","district_en":"Sai Kung","count":3,"action_number":"1300","source":"AFCD","count_band":null,"location_precision":null,"notes":""}},{"type":"Feature","geometry":{"type":"Point","coordinates":[114.241137,22.335246]},"properties":{"date":"2026-09-08","year":2026,"month":"2026-09","location":"嘉澍路","district":"西貢區","district_en":"Sai Kung","count":5,"action_number":"1298","source":"AFCD","count_band":null,"location_precision":null,"notes":""}},{"type":"Feature","geometry":{"type":"Point","coordinates":[114.297682,22.303526]},"properties":{"date":"2026-09-08","year":2026,"month":"2026-09","location":"龍蝦灣路","district":"西貢區","district_en":"Sai Kung","count":1,"action_number":"1301","source":"AFCD","count_band":null,"location_precision":null,"notes":""}},{"type":"Feature","geometry":{"type":"Point","coordinates":[114.174834,22.251296]},"properties":{"date":"2026-09-09","year":2026,"month":"2026-09","location":"南風道","district":"南區","district_en":"Southern","count":1,"action_number":"1302","source":"AFCD","count_band":null,"location_precision":null,"notes":""}},{"type":"Feature","geometry":{"type":"Point","coordinates":[114.177716,22.27479]},"properties":{"date":"2026-09-09","year":2026,"month":"2026-09","location":"司徒拔道","district":"灣仔區","district_en":"Wan Chai","count":3,"action_number":"1305","source":"AFCD","count_band":null,"location_precision":null,"notes":""}},{"type":"Feature","geometry":{"type":"Point","coordinates":[114.241137,22.335246]},"properties":{"date":"2026-09-09","year":2026,"month":"2026-09","location":"嘉澍路","district":"西貢區","district_en":"Sai Kung","count":1,"action_number":"1303","source":"AFCD","count_band":null,"location_precision":null,"notes":""}},{"type":"Feature","geometry":{"type":"Point","coordinates":[114.264132,22.380989]},"properties":{"date":"2026-09-09","year":2026,"month":"2026-09","location":"菠蘿輋","district":"西貢區","district_en":"Sai Kung","count":1,"action_number":"1304","source":"AFCD","count_band":null,"location_precision":null,"notes":""}},{"type":"Feature","geometry":{"type":"Point","coordinates":[114.238197,22.33604]},"properties":{"date":"2026-09-10","year":2026,"month":"2026-09","location":"井欄樹","district":"西貢區","district_en":"Sai Kung","count":1,"action_number":"1308","source":"AFCD","count_band":null,"location_precision":null,"notes":""}},{"type":"Feature","geometry":{"type":"Point","coordinates":[114.177716,22.27479]},"properties":{"date":"2026-09-10","year":2026,"month":"2026-09","location":"司徒拔道","district":"灣仔區","district_en":"Wan Chai","count":1,"action_number":"1312","source":"AFCD","count_band":null,"location_precision":null,"notes":""}},{"type":"Feature","geometry":{"type":"Point","coordinates":[114.241137,22.335246]},"properties":{"date":"2026-09-10","year":2026,"month":"2026-09","location":"嘉澍路","district":"西貢區","district_en":"Sai Kung","count":1,"action_number":"1307","source":"AFCD","count_band":null,"location_precision":null,"notes":""}},{"type":"Feature","geometry":{"type":"Point","coordinates":[114.195473,22.34199]},"properties":{"date":"2026-09-10","year":2026,"month":"2026-09","location":"沙田坳道","district":"黃大仙區","district_en":"Wong Tai Sin","count":3,"action_number":"1306","source":"AFCD","count_band":null,"location_precision":null,"notes":""}},{"type":"Feature","geometry":{"type":"Point","coordinates":[114.250033,22.233167]},"properties":{"date":"2026-09-10","year":2026,"month":"2026-09","location":"石澳","district":"南區","district_en":"Southern","count":1,"action_number":"1309","source":"AFCD","count_band":null,"location_precision":null,"notes":""}},{"type":"Feature","geometry":{"type":"Point","coordinates":[114.133271,22.283763]},"properties":{"date":"2026-09-10","year":2026,"month":"2026-09","location":"薄扶林道","district":"中西區","district_en":"Central and Western","count":4,"action_number":"1310","source":"AFCD","count_band":null,"location_precision":null,"notes":""}},{"type":"Feature","geometry":{"type":"Point","coordinates":[114.156421,22.248907]},"properties":{"date":"2026-09-10","year":2026,"month":"2026-09","location":"香港仔","district":"南區","district_en":"Southern","count":6,"action_number":"1311","source":"AFCD","count_band":null,"location_precision":null,"notes":""}},{"type":"Feature","geometry":{"type":"Point","coordinates":[114.238197,22.33604]},"properties":{"date":"2026-09-11","year":2026,"month":"2026-09","location":"井欄樹","district":"西貢區","district_en":"Sai Kung","count":2,"action_number":"1314","source":"AFCD","count_band":null,"location_precision":null,"notes":""}},{"type":"Feature","geometry":{"type":"Point","coordinates":[114.177716,22.27479]},"properties":{"date":"2026-09-11","year":2026,"month":"2026-09","location":"司徒拔道","district":"灣仔區","district_en":"Wan Chai","count":1,"action_number":"1315","source":"AFCD","count_band":null,"location_precision":null,"notes":""}},{"type":"Feature","geometry":{"type":"Point","coordinates":[114.264132,22.380989]},"properties":{"date":"2026-09-11","year":2026,"month":"2026-09","location":"菠蘿輋","district":"西貢區","district_en":"Sai Kung","count":1,"action_number":"1313","source":"AFCD","count_band":null,"location_precision":null,"notes":""}},{"type":"Feature","geometry":{"type":"Point","coordinates":[114.22259,22.472599]},"properties":{"date":"2026-09-15","year":2026,"month":"2026-09","location":"山南路","district":"大埔區","district_en":"Tai Po","count":10,"action_number":"1317","source":"AFCD","count_band":null,"location_precision":null,"notes":""}},{"type":"Feature","geometry":{"type":"Point","coordinates":[114.151947,22.468819]},"properties":{"date":"2026-09-15","year":2026,"month":"2026-09","location":"泰亨","district":"大埔區","district_en":"Tai Po","count":2,"action_number":"1316","source":"AFCD","count_band":null,"location_precision":null,"notes":""}},{"type":"Feature","geometry":{"type":"Point","coordinates":[114.177716,22.27479]},"properties":{"date":"2026-09-16","year":2026,"month":"2026-09","location":"司徒拔道","district":"灣仔區","district_en":"Wan Chai","count":1,"action_number":"1323","source":"AFCD","count_band":null,"location_precision":null,"notes":""}},{"type":"Feature","geometry":{"type":"Point","coordinates":[114.22259,22.472599]},"properties":{"date":"2026-09-16","year":2026,"month":"2026-09","location":"山南路","district":"大埔區","district_en":"Tai Po","count":2,"action_number":"1322","source":"AFCD","count_band":null,"location_precision":null,"notes":""}},{"type":"Feature","geometry":{"type":"Point","coordinates":[114.206907,22.460036]},"properties":{"date":"2026-09-16","year":2026,"month":"2026-09","location":"沙欄","district":"大埔區","district_en":"Tai Po","count":1,"action_number":"1320","source":"AFCD","count_band":null,"location_precision":null,"notes":""}},{"type":"Feature","geometry":{"type":"Point","coordinates":[114.151947,22.468819]},"properties":{"date":"2026-09-16","year":2026,"month":"2026-09","location":"泰亨","district":"大埔區","district_en":"Tai Po","count":1,"action_number":"1319","source":"AFCD","count_band":null,"location_precision":null,"notes":""}},{"type":"Feature","geometry":{"type":"Point","coordinates":[114.20395,22.465109]},"properties":{"date":"2026-09-16","year":2026,"month":"2026-09","location":"蝦地下","district":"大埔區","district_en":"Tai Po","count":1,"action_number":"1321","source":"AFCD","count_band":null,"location_precision":null,"notes":""}},{"type":"Feature","geometry":{"type":"Point","coordinates":[114.233913,22.295005]},"properties":{"date":"2026-09-16","year":2026,"month":"2026-09","location":"高輝道","district":"觀塘區","district_en":"Kwun Tong","count":1,"action_number":"1318","source":"AFCD","count_band":null,"location_precision":null,"notes":""}},{"type":"Feature","geometry":{"type":"Point","coordinates":[114.148679,22.482701]},"properties":{"date":"2026-09-17","year":2026,"month":"2026-09","location":"和合石","district":"北區","district_en":"North","count":2,"action_number":"1324","source":"AFCD","count_band":null,"location_precision":null,"notes":""}},{"type":"Feature","geometry":{"type":"Point","coordinates":[114.147409,22.495057]},"properties":{"date":"2026-09-17","year":2026,"month":"2026-09","location":"崇謙堂村","district":"北區","district_en":"North","count":3,"action_number":"1325","source":"AFCD","count_band":null,"location_precision":null,"notes":""}},{"type":"Feature","geometry":{"type":"Point","coordinates":[114.228589,22.332487]},"properties":{"date":"2026-09-18","year":2026,"month":"2026-09","location":"安達臣道","district":"觀塘區","district_en":"Kwun Tong","count":1,"action_number":"1327","source":"AFCD","count_band":null,"location_precision":null,"notes":""}},{"type":"Feature","geometry":{"type":"Point","coordinates":[114.147409,22.495057]},"properties":{"date":"2026-09-18","year":2026,"month":"2026-09","location":"崇謙堂村","district":"北區","district_en":"North","count":2,"action_number":"1326","source":"AFCD","count_band":null,"location_precision":null,"notes":""}},{"type":"Feature","geometry":{"type":"Point","coordinates":[114.19524,22.345273]},"properties":{"date":"2026-09-19","year":2026,"month":"2026-09","location":"竹園道","district":"黃大仙區","district_en":"Wong Tai Sin","count":1,"action_number":"1328","source":"AFCD","count_band":null,"location_precision":null,"notes":""}},{"type":"Feature","geometry":{"type":"Point","coordinates":[114.243099,22.266023]},"properties":{"date":"2026-09-21","year":2026,"month":"2026-09","location":"柴灣道","district":null,"district_en":null,"count":1,"action_number":"1329","source":"AFCD","count_band":null,"location_precision":null,"notes":""}},{"type":"Feature","geometry":{"type":"Point","coordinates":[114.211589,22.284667]},"properties":{"date":"2026-09-22","year":2026,"month":"2026-09","location":"柏架山道","district":"東區","district_en":"Eastern","count":2,"action_number":"1333","source":"AFCD","count_band":null,"location_precision":null,"notes":""}},{"type":"Feature","geometry":{"type":"Point","coordinates":[114.162003,22.424959]},"properties":{"date":"2026-09-22","year":2026,"month":"2026-09","location":"碗窰路","district":"大埔區","district_en":"Tai Po","count":1,"action_number":"1331","source":"AFCD","count_band":null,"location_precision":null,"notes":""}},{"type":"Feature","geometry":{"type":"Point","coordinates":[114.154008,22.256104]},"properties":{"date":"2026-09-22","year":2026,"month":"2026-09","location":"貝璐道","district":"南區","district_en":"Southern","count":3,"action_number":"1332","source":"AFCD","count_band":null,"location_precision":null,"notes":""}},{"type":"Feature","geometry":{"type":"Point","coordinates":[114.262439,22.430184]},"properties":{"date":"2026-09-22","year":2026,"month":"2026-09","location":"輋下","district":"大埔區","district_en":"Tai Po","count":1,"action_number":"1330","source":"AFCD","count_band":null,"location_precision":null,"notes":""}},{"type":"Feature","geometry":{"type":"Point","coordinates":[114.150021,22.265323]},"properties":{"date":"2026-09-23","year":2026,"month":"2026-09","location":"堪仕達道","district":"中西區","district_en":"Central and Western","count":1,"action_number":"1335","source":"AFCD","count_band":null,"location_precision":null,"notes":""}},{"type":"Feature","geometry":{"type":"Point","coordinates":[114.243099,22.266023]},"properties":{"date":"2026-09-23","year":2026,"month":"2026-09","location":"柴灣道","district":null,"district_en":null,"count":1,"action_number":"1337","source":"AFCD","count_band":null,"location_precision":null,"notes":""}},{"type":"Feature","geometry":{"type":"Point","coordinates":[114.16924,22.267248]},"properties":{"date":"2026-09-23","year":2026,"month":"2026-09","location":"甘道","district":"灣仔區","district_en":"Wan Chai","count":1,"action_number":"1336","source":"AFCD","count_band":null,"location_precision":null,"notes":""}},{"type":"Feature","geometry":{"type":"Point","coordinates":[114.154008,22.256104]},"properties":{"date":"2026-09-23","year":2026,"month":"2026-09","location":"貝璐道","district":"南區","district_en":"Southern","count":1,"action_number":"1334","source":"AFCD","count_band":null,"location_precision":null,"notes":""}},{"type":"Feature","geometry":{"type":"Point","coordinates":[114.262439,22.430184]},"properties":{"date":"2026-09-23","year":2026,"month":"2026-09","location":"輋下","district":"大埔區","district_en":"Tai Po","count":1,"action_number":"1338","source":"AFCD","count_band":null,"location_precision":null,"notes":""}},{"type":"Feature","geometry":{"type":"Point","coordinates":[114.272927,22.296406]},"properties":{"date":"2026-09-24","year":2026,"month":"2026-09","location":"環保大道","district":"西貢區","district_en":"Sai Kung","count":1,"action_number":"1339","source":"AFCD","count_band":null,"location_precision":null,"notes":""}},{"type":"Feature","geometry":{"type":"Point","coordinates":[114.195473,22.34199]},"properties":{"date":"2026-09-25","year":2026,"month":"2026-09","location":"沙田坳道","district":"黃大仙區","district_en":"Wong Tai Sin","count":3,"action_number":"1341","source":"AFCD","count_band":null,"location_precision":null,"notes":""}},{"type":"Feature","geometry":{"type":"Point","coordinates":[114.238802,22.309835]},"properties":{"date":"2026-09-25","year":2026,"month":"2026-09","location":"碧雲道","district":"觀塘區","district_en":"Kwun Tong","count":2,"action_number":"1340","source":"AFCD","count_band":null,"location_precision":null,"notes":""}},{"type":"Feature","geometry":{"type":"Point","coordinates":[114.24405,22.316965]},"properties":{"date":"2026-09-25","year":2026,"month":"2026-09","location":"馬游塘","district":"西貢區","district_en":"Sai Kung","count":1,"action_number":"1342","source":"AFCD","count_band":null,"location_precision":null,"notes":""}},{"type":"Feature","geometry":{"type":"Point","coordinates":[114.1381,22.342852]},"properties":{"date":"2026-10-02","year":2026,"month":"2026-10","location":"荔景山路","district":"葵青區","district_en":"Kwai Tsing","count":1,"action_number":"1343","source":"AFCD","count_band":null,"location_precision":null,"notes":""}},{"type":"Feature","geometry":{"type":"Point","coordinates":[114.312631,22.361483]},"properties":{"date":"2026-10-05","year":2026,"month":"2026-10","location":"滘西洲","district":"西貢區","district_en":"Sai Kung","count":1,"action_number":"1344","source":"AFCD","count_band":null,"location_precision":null,"notes":""}},{"type":"Feature","geometry":{"type":"Point","coordinates":[114.238802,22.309835]},"properties":{"date":"2026-10-05","year":2026,"month":"2026-10","location":"碧雲道","district":"觀塘區","district_en":"Kwun Tong","count":2,"action_number":"1345","source":"AFCD","count_band":null,"location_precision":null,"notes":""}},{"type":"Feature","geometry":{"type":"Point","coordinates":[114.195473,22.34199]},"properties":{"date":"2026-10-06","year":2026,"month":"2026-10","location":"沙田坳道","district":"黃大仙區","district_en":"Wong Tai Sin","count":2,"action_number":"1346","source":"AFCD","count_band":null,"location_precision":null,"notes":""}},{"type":"Feature","geometry":{"type":"Point","coordinates":[114.164066,22.274874]},"properties":{"date":"2026-10-06","year":2026,"month":"2026-10","location":"波老道","district":"中西區","district_en":"Central and Western","count":1,"action_number":"1348","source":"AFCD","count_band":null,"location_precision":null,"notes":""}},{"type":"Feature","geometry":{"type":"Point","coordinates":[114.167469,22.342116]},"properties":{"date":"2026-10-06","year":2026,"month":"2026-10","location":"龍坪道","district":"深水埗區","district_en":"Sham Shui Po","count":1,"action_number":"1347","source":"AFCD","count_band":null,"location_precision":null,"notes":""}}]}